STARLINK-31561          
1 59352U 24060E   26068.53227136 -.00000079  00000+0  66345-5 0  9992
2 59352  42.9985 260.3254 0000666 172.8342 187.2519 15.27576343110042
TRANSPORTER-12 OBJECT BT
1 62674U 25009BT  26068.71416991  .00013824  00000+0  51029-3 0  9998
2 62674  97.4094 151.5992 0003682 313.5044  46.5889 15.27872239121360
